[{"OBJECT_NAME":"STARLINK-35488","OBJECT_ID":"2025-245W","EPOCH":"2026-03-09T20:58:48.694080","MEAN_MOTION":15.30195842,"ECCENTRICITY":0.00010091,"INCLINATION":53.1565,"RA_OF_ASC_NODE":283.1162,"ARG_OF_PERICENTER":83.7537,"MEAN_ANOMALY":276.3579,"EPHEMERIS_TYPE":0,"CLASSIFICATION_TYPE":"U","NORAD_CAT_ID":66254,"ELEMENT_SET_NO":999,"REV_AT_EPOCH":2128,"BSTAR":0.00076839006,"MEAN_MOTION_DOT":0.00022464,"MEAN_MOTION_DDOT":0},{"OBJECT_NAME":"SL-3 R\/B","OBJECT_ID":"1982-027B","EPOCH":"2026-03-09T22:44:40.208640","MEAN_MOTION":15.28335844,"ECCENTRICITY":0.00065199,"INCLINATION":81.188,"RA_OF_ASC_NODE":37.4466,"ARG_OF_PERICENTER":276.581,"MEAN_ANOMALY":83.4683,"EPHEMERIS_TYPE":0,"CLASSIFICATION_TYPE":"U","NORAD_CAT_ID":13121,"ELEMENT_SET_NO":999,"REV_AT_EPOCH":39859,"BSTAR":0.00030526741,"MEAN_MOTION_DOT":8.453e-5,"MEAN_MOTION_DDOT":0}]
